{"type": "FeatureCollection", "features": [ {"type": "Feature", "properties": {"norad_id": 44476, "name": "INTELSAT 39 (IS-39)", "group": "intelsat", "lat": 0.013702651990232979, "lon": 12.552867244670942, "alt_km": 35788.73167227197, "timestamp": "2025-12-21T14:40:47.578731+00:00", "meta": {"OBJECT_NAME": "INTELSAT 39 (IS-39)", "OBJECT_ID": "2019-049B", "EPOCH": "2025-12-21T04:55:56.650656", "MEAN_MOTION": 1.00270671, "ECCENTRICITY": 0.0001047, "INCLINATION": 0.017, "RA_OF_ASC_NODE": 349.5592, "ARG_OF_PERICENTER": 145.6659, "MEAN_ANOMALY": 90.7353, "EPHEMERIS_TYPE": 0, "CLASSIFICATION_TYPE": "U", "NORAD_CAT_ID": 44476, "ELEMENT_SET_NO": 999, "REV_AT_EPOCH": 2334, "BSTAR": 0, "MEAN_MOTION_DOT": 5.6e-07, "MEAN_MOTION_DDOT": 0}, "tle": {"line1": "1 44476U 19049B   25355.20551679  .00000056  00000+0  00000+0 0  9992", "line2": "2 44476   0.0170 349.5592 0001047 145.6659  90.7353  1.00270671 23343"}}, "geometry": {"type": "Point", "coordinates": [12.552867244670942, 0.013702651990232979]}}, {"type": "Feature", "properties": {"norad_id": 46114, "name": "GALAXY 30 (G-30)", "group": "intelsat", "lat": -0.009082711833832118, "lon": -174.3802097043188, "alt_km": 35784.965580723554, "timestamp": "2025-12-21T14:40:47.578742+00:00", "meta": {"OBJECT_NAME": "GALAXY 30 (G-30)", "OBJECT_ID": "2020-056C", "EPOCH": "2025-12-21T00:37:13.930752", "MEAN_MOTION": 1.00273357, "ECCENTRICITY": 0.00020294, "INCLINATION": 0.0178, "RA_OF_ASC_NODE": 349.0054, "ARG_OF_PERICENTER": 282.3653, "MEAN_ANOMALY": 62.8096, "EPHEMERIS_TYPE": 0, "CLASSIFICATION_TYPE": "U", "NORAD_CAT_ID": 46114, "ELEMENT_SET_NO": 999, "REV_AT_EPOCH": 1950, "BSTAR": 0, "MEAN_MOTION_DOT": 6e-07, "MEAN_MOTION_DDOT": 0}, "tle": {"line1": "1 46114U 20056C   25355.02585568  .00000060  00000+0  00000+0 0  9992", "line2": "2 46114   0.0178 349.0054 0002029 282.3653  62.8096  1.00273357 19505"}}, "geometry": {"type": "Point", "coordinates": [-174.3802097043188, -0.009082711833832118]}}, {"type": "Feature", "properties": {"norad_id": 54026, "name": "GALAXY 33 (G-33)", "group": "intelsat", "lat": 0.01899660331811375, "lon": 177.601511649681, "alt_km": 35786.44593083959, "timestamp": "2025-12-21T14:40:47.578754+00:00", "meta": {"OBJECT_NAME": "GALAXY 33 (G-33)", "OBJECT_ID": "2022-128A", "EPOCH": "2025-12-21T06:12:12.296160", "MEAN_MOTION": 1.00271485, "ECCENTRICITY": 0.00015563, "INCLINATION": 0.0176, "RA_OF_ASC_NODE": 49.3627, "ARG_OF_PERICENTER": 220.9527, "MEAN_ANOMALY": 139.8174, "EPHEMERIS_TYPE": 0, "CLASSIFICATION_TYPE": "U", "NORAD_CAT_ID": 54026, "ELEMENT_SET_NO": 999, "REV_AT_EPOCH": 1195, "BSTAR": 0, "MEAN_MOTION_DOT": 1.02e-06, "MEAN_MOTION_DDOT": 0}, "tle": {"line1": "1 54026U 22128A   25355.25847565  .00000102  00000+0  00000+0 0  9995", "line2": "2 54026   0.0176  49.3627 0001556 220.9527 139.8174  1.00271485 11955"}}, "geometry": {"type": "Point", "coordinates": [177.601511649681, 0.01899660331811375]}}, {"type": "Feature", "properties": {"norad_id": 54027, "name": "GALAXY 34 (G-34)", "group": "intelsat", "lat": 0.008703098922430623, "lon": -178.35506429384253, "alt_km": 35786.30280566859, "timestamp": "2025-12-21T14:40:47.578766+00:00", "meta": {"OBJECT_NAME": "GALAXY 34 (G-34)", "OBJECT_ID": "2022-128B", "EPOCH": "2025-12-21T07:10:10.723872", "MEAN_MOTION": 1.00268136, "ECCENTRICITY": 0.00017963, "INCLINATION": 0.0237, "RA_OF_ASC_NODE": 17.2747, "ARG_OF_PERICENTER": 248.4543, "MEAN_ANOMALY": 162.9868, "EPHEMERIS_TYPE": 0, "CLASSIFICATION_TYPE": "U", "NORAD_CAT_ID": 54027, "ELEMENT_SET_NO": 999, "REV_AT_EPOCH": 1212, "BSTAR": 0, "MEAN_MOTION_DOT": 0, "MEAN_MOTION_DDOT": 0}, "tle": {"line1": "1 54027U 22128B   25355.29873523  .00000000  00000+0  00000+0 0  9990", "line2": "2 54027   0.0237  17.2747 0001796 248.4543 162.9868  1.00268136 12126"}}, "geometry": {"type": "Point", "coordinates": [-178.35506429384253, 0.008703098922430623]}}, {"type": "Feature", "properties": {"norad_id": 54243, "name": "GALAXY 31 (G-31)", "group": "intelsat", "lat": 0.013935255058296087, "lon": -170.39800143676226, "alt_km": 35786.195396291645, "timestamp": "2025-12-21T14:40:47.578778+00:00", "meta": {"OBJECT_NAME": "GALAXY 31 (G-31)", "OBJECT_ID": "2022-153A", "EPOCH": "2025-12-21T04:32:38.609664", "MEAN_MOTION": 1.00271219, "ECCENTRICITY": 0.0001379, "INCLINATION": 0.0225, "RA_OF_ASC_NODE": 87.4466, "ARG_OF_PERICENTER": 192.028, "MEAN_ANOMALY": 117.6986, "EPHEMERIS_TYPE": 0, "CLASSIFICATION_TYPE": "U", "NORAD_CAT_ID": 54243, "ELEMENT_SET_NO": 999, "REV_AT_EPOCH": 534, "BSTAR": 0, "MEAN_MOTION_DOT": 3.6e-07, "MEAN_MOTION_DDOT": 0}, "tle": {"line1": "1 54243U 22153A   25355.18933576  .00000036  00000+0  00000+0 0  9990", "line2": "2 54243   0.0225  87.4466 0001379 192.0280 117.6986  1.00271219  5349"}}, "geometry": {"type": "Point", "coordinates": [-170.39800143676226, 0.013935255058296087]}}, {"type": "Feature", "properties": {"norad_id": 54244, "name": "GALAXY 32 (G-32)", "group": "intelsat", "lat": -0.027537205921845807, "lon": -140.40246095184477, "alt_km": 35787.89267778798, "timestamp": "2025-12-21T14:40:47.578789+00:00", "meta": {"OBJECT_NAME": "GALAXY 32 (G-32)", "OBJECT_ID": "2022-153B", "EPOCH": "2025-12-21T04:12:15.833664", "MEAN_MOTION": 1.00270554, "ECCENTRICITY": 0.00019489, "INCLINATION": 0.0108, "RA_OF_ASC_NODE": 337.5471, "ARG_OF_PERICENTER": 342.4382, "MEAN_ANOMALY": 102.082, "EPHEMERIS_TYPE": 0, "CLASSIFICATION_TYPE": "U", "NORAD_CAT_ID": 54244, "ELEMENT_SET_NO": 999, "REV_AT_EPOCH": 1135, "BSTAR": 0, "MEAN_MOTION_DOT": -1.51e-06, "MEAN_MOTION_DDOT": 0}, "tle": {"line1": "1 54244U 22153B   25355.17518326 -.00000151  00000+0  00000+0 0  9991", "line2": "2 54244   0.0108 337.5471 0001948 342.4382 102.0820  1.00270554 11355"}}, "geometry": {"type": "Point", "coordinates": [-140.40246095184477, -0.027537205921845807]}}, {"type": "Feature", "properties": {"norad_id": 54741, "name": "GALAXY 35 (G-35)", "group": "intelsat", "lat": -0.0016507394052775396, "lon": -142.4939231860564, "alt_km": 35780.844424976654, "timestamp": "2025-12-21T14:40:47.578801+00:00", "meta": {"OBJECT_NAME": "GALAXY 35 (G-35)", "OBJECT_ID": "2022-170A", "EPOCH": "2025-12-21T06:35:30.234336", "MEAN_MOTION": 1.00272036, "ECCENTRICITY": 0.00021612, "INCLINATION": 0.0146, "RA_OF_ASC_NODE": 67.2142, "ARG_OF_PERICENTER": 205.8488, "MEAN_ANOMALY": 182.8171, "EPHEMERIS_TYPE": 0, "CLASSIFICATION_TYPE": "U", "NORAD_CAT_ID": 54741, "ELEMENT_SET_NO": 999, "REV_AT_EPOCH": 1111, "BSTAR": 0, "MEAN_MOTION_DOT": -1.4e-06, "MEAN_MOTION_DDOT": 0}, "tle": {"line1": "1 54741U 22170A   25355.27465549 -.00000140  00000+0  00000+0 0  9999", "line2": "2 54741   0.0146  67.2142 0002161 205.8488 182.8171  1.00272036 11114"}}, "geometry": {"type": "Point", "coordinates": [-142.4939231860564, -0.0016507394052775396]}}, {"type": "Feature", "properties": {"norad_id": 54742, "name": "GALAXY 36 (G-36)", "group": "intelsat", "lat": -0.015816493694912358, "lon": -138.39308591270546, "alt_km": 35787.94701906398, "timestamp": "2025-12-21T14:40:47.578813+00:00", "meta": {"OBJECT_NAME": "GALAXY 36 (G-36)", "OBJECT_ID": "2022-170B", "EPOCH": "2025-12-21T04:12:53.274240", "MEAN_MOTION": 1.0026921, "ECCENTRICITY": 4.222e-05, "INCLINATION": 0.0147, "RA_OF_ASC_NODE": 28.9908, "ARG_OF_PERICENTER": 321.7083, "MEAN_ANOMALY": 73.5178, "EPHEMERIS_TYPE": 0, "CLASSIFICATION_TYPE": "U", "NORAD_CAT_ID": 54742, "ELEMENT_SET_NO": 999, "REV_AT_EPOCH": 1098, "BSTAR": 0, "MEAN_MOTION_DOT": 0, "MEAN_MOTION_DDOT": 0}, "tle": {"line1": "1 54742U 22170B   25355.17561660  .00000000  00000+0  00000+0 0  9994", "line2": "2 54742   0.0147  28.9908 0000422 321.7083  73.5178  1.00269210 10984"}}, "geometry": {"type": "Point", "coordinates": [-138.39308591270546, -0.015816493694912358]}}, {"type": "Feature", "properties": {"norad_id": 57493, "name": "GALAXY 37 (G-37)", "group": "intelsat", "lat": 0.0013654969746561372, "lon": -176.41048391032882, "alt_km": 35786.3113422851, "timestamp": "2025-12-21T14:40:47.578824+00:00", "meta": {"OBJECT_NAME": "GALAXY 37 (G-37)", "OBJECT_ID": "2023-112A", "EPOCH": "2025-12-21T05:23:39.524064", "MEAN_MOTION": 1.00271048, "ECCENTRICITY": 0.00019308, "INCLINATION": 0.0129, "RA_OF_ASC_NODE": 8.4193, "ARG_OF_PERICENTER": 265.5563, "MEAN_ANOMALY": 129.9804, "EPHEMERIS_TYPE": 0, "CLASSIFICATION_TYPE": "U", "NORAD_CAT_ID": 57493, "ELEMENT_SET_NO": 999, "REV_AT_EPOCH": 875, "BSTAR": 0, "MEAN_MOTION_DOT": 7.1e-07, "MEAN_MOTION_DDOT": 0}, "tle": {"line1": "1 57493U 23112A   25355.22476301  .00000071  00000+0  00000+0 0  9998", "line2": "2 57493   0.0129   8.4193 0001930 265.5563 129.9804  1.00271048  8758"}}, "geometry": {"type": "Point", "coordinates": [-176.41048391032882, 0.0013654969746561372]}}]}